start=new Date('2023-01-30T00:00:00.000Z').valueOf();
sats=[{"COUNTRY_CODE":"US","PERIOD":"95.438","MEAN_MOTION_DOT":"0.00000640","MEAN_MOTION":"15.08838994","BSTAR":"0.00005828800000","ELEMENT_SET_NO":"999","GP_ID":"223957595","ECCENTRICITY":"0.00010730","OBJECT_NAME":"STARLINK-3388","TLE_LINE1":"1 51131U 22005AD  23029.91370534  .00000640  00000-0  58288-4 0  9993","CLASSIFICATION_TYPE":"U","MEAN_ANOMALY":"274.8112","EPHEMERIS_TYPE":"0","OBJECT_TYPE":"PAYLOAD","RCS_SIZE":"LARGE","MEAN_MOTION_DDOT":"0.0000000000000","APOAPSIS":"540.491","INCLINATION":"53.2145","REF_FRAME":"TEME","SITE":"AFETR","FILE":"3765015","TIME_SYSTEM":"UTC","MEAN_ELEMENT_THEORY":"SGP4","CENTER_NAME":"EARTH","RA_OF_ASC_NODE":"353.3372","REV_AT_EPOCH":"5741","SEMIMAJOR_AXIS":"6917.883","TLE_LINE2":"2 51131  53.2145 353.3372 0001073  85.3002 274.8112 15.08838994 57415","OBJECT_ID":"2022-005AD","LAUNCH_DATE":"2022-01-19","NORAD_CAT_ID":"51131","EPOCH":"2023-01-29T21:55:44.141376","DECAY_DATE":null,"PERIAPSIS":"539.006","ARG_OF_PERICENTER":"85.3002"},{"PERIOD":"95.437","MEAN_MOTION_DOT":"0.00004574","COUNTRY_CODE":"US","ELEMENT_SET_NO":"999","GP_ID":"223958347","BSTAR":"0.00030515000000","MEAN_MOTION":"15.08853559","TLE_LINE1":"1 51132U 22005AE  23029.32121805  .00004574  00000-0  30515-3 0  9996","OBJECT_NAME":"STARLINK-3393","MEAN_ANOMALY":"257.0080","EPHEMERIS_TYPE":"0","CLASSIFICATION_TYPE":"U","ECCENTRICITY":"0.00016450","MEAN_MOTION_DDOT":"0.0000000000000","OBJECT_TYPE":"PAYLOAD","RCS_SIZE":"LARGE","INCLINATION":"53.2165","REF_FRAME":"TEME","APOAPSIS":"540.842","RA_OF_ASC_NODE":"355.9949","TIME_SYSTEM":"UTC","CENTER_NAME":"EARTH","MEAN_ELEMENT_THEORY":"SGP4","SITE":"AFETR","FILE":"3765015","EPOCH":"2023-01-29T07:42:33.239520","TLE_LINE2":"2 51132  53.2165 355.9949 0001645 103.1096 257.0080 15.08853559 57324","OBJECT_ID":"2022-005AE","REV_AT_EPOCH":"5732","SEMIMAJOR_AXIS":"6917.839","NORAD_CAT_ID":"51132","LAUNCH_DATE":"2022-01-19","PERIAPSIS":"538.566","ARG_OF_PERICENTER":"103.1096","DECAY_DATE":null},{"RA_OF_ASC_NODE":"353.3629","TIME_SYSTEM":"UTC","CENTER_NAME":"EARTH","MEAN_ELEMENT_THEORY":"SGP4","SITE":"AFETR","FILE":"3765015","INCLINATION":"53.2163","REF_FRAME":"TEME","APOAPSIS":"540.673","ARG_OF_PERICENTER":"92.3395","PERIAPSIS":"538.799","DECAY_DATE":null,"EPOCH":"2023-01-29T21:45:08.034336","TLE_LINE2":"2 51133  53.2163 353.3629 0001354  92.3395 267.7752 15.08843053 57410","OBJECT_ID":"2022-005AF","REV_AT_EPOCH":"5741","SEMIMAJOR_AXIS":"6917.871","NORAD_CAT_ID":"51133","LAUNCH_DATE":"2022-01-19","ELEMENT_SET_NO":"999","GP_ID":"223958098","MEAN_MOTION":"15.08843053","BSTAR":"0.00008490500000","PERIOD":"95.437","MEAN_MOTION_DOT":"0.00001064","COUNTRY_CODE":"US","MEAN_MOTION_DDOT":"0.0000000000000","OBJECT_TYPE":"PAYLOAD","RCS_SIZE":"LARGE","TLE_LINE1":"1 51133U 22005AF  23029.90634299  .00001064  00000-0  84905-4 0  9991","OBJECT_NAME":"STARLINK-3356","EPHEMERIS_TYPE":"0","MEAN_ANOMALY":"267.7752","CLASSIFICATION_TYPE":"U","ECCENTRICITY":"0.00013540"},{"ELEMENT_SET_NO":"999","GP_ID":"223956847","MEAN_MOTION":"15.08844120","BSTAR":"0.00060453000000","MEAN_MOTION_DOT":"0.00009347","PERIOD":"95.437","COUNTRY_CODE":"US","MEAN_MOTION_DDOT":"0.0000000000000","RCS_SIZE":"LARGE","OBJECT_TYPE":"PAYLOAD","CLASSIFICATION_TYPE":"U","EPHEMERIS_TYPE":"0","MEAN_ANOMALY":"283.1781","OBJECT_NAME":"STARLINK-3183","TLE_LINE1":"1 51134U 22005AG  23029.87510285  .00009347  00000-0  60453-3 0  9999","ECCENTRICITY":"0.00014870","CENTER_NAME":"EARTH","TIME_SYSTEM":"UTC","MEAN_ELEMENT_THEORY":"SGP4","RA_OF_ASC_NODE":"343.5032","FILE":"3765015","SITE":"AFETR","APOAPSIS":"540.761","INCLINATION":"53.2168","REF_FRAME":"TEME","ARG_OF_PERICENTER":"76.9377","PERIAPSIS":"538.704","DECAY_DATE":null,"EPOCH":"2023-01-29T21:00:08.886240","LAUNCH_DATE":"2022-01-19","NORAD_CAT_ID":"51134","REV_AT_EPOCH":"5756","SEMIMAJOR_AXIS":"6917.868","TLE_LINE2":"2 51134  53.2168 343.5032 0001487  76.9377 283.1781 15.08844120 57566","OBJECT_ID":"2022-005AG"},{"PERIAPSIS":"538.991","ARG_OF_PERICENTER":"89.0897","DECAY_DATE":null,"EPOCH":"2023-01-29T21:39:50.154912","NORAD_CAT_ID":"51135","LAUNCH_DATE":"2022-01-19","TLE_LINE2":"2 51135  53.2153 353.3788 0001110  89.0897 271.0222 15.08835673 57416","OBJECT_ID":"2022-005AH","SEMIMAJOR_AXIS":"6917.894","REV_AT_EPOCH":"5741","RA_OF_ASC_NODE":"353.3788","MEAN_ELEMENT_THEORY":"SGP4","CENTER_NAME":"EARTH","TIME_SYSTEM":"UTC","FILE":"3765015","SITE":"AFETR","REF_FRAME":"TEME","INCLINATION":"53.2153","APOAPSIS":"540.527","MEAN_MOTION_DDOT":"0.0000000000000","RCS_SIZE":"LARGE","OBJECT_TYPE":"PAYLOAD","MEAN_ANOMALY":"271.0222","EPHEMERIS_TYPE":"0","CLASSIFICATION_TYPE":"U","TLE_LINE1":"1 51135U 22005AH  23029.90266383  .00001414  00000-0  10691-3 0  9997","OBJECT_NAME":"STARLINK-3363","ECCENTRICITY":"0.00011100","GP_ID":"223957096","ELEMENT_SET_NO":"999","BSTAR":"0.00010691000000","MEAN_MOTION":"15.08835673","MEAN_MOTION_DOT":"0.00001414","PERIOD":"95.438","COUNTRY_CODE":"US"},{"MEAN_MOTION_DDOT":"0.0000000000000","OBJECT_TYPE":"PAYLOAD","RCS_SIZE":"LARGE","TLE_LINE1":"1 51136U 22005AJ  23029.90362216  .00003327  00000-0  22697-3 0  9994","OBJECT_NAME":"STARLINK-3253","EPHEMERIS_TYPE":"0","MEAN_ANOMALY":"271.8020","CLASSIFICATION_TYPE":"U","ECCENTRICITY":"0.00016550","GP_ID":"223957848","ELEMENT_SET_NO":"999","BSTAR":"0.00022697000000","MEAN_MOTION":"15.08844945","PERIOD":"95.437","MEAN_MOTION_DOT":"0.00003327","COUNTRY_CODE":"US","ARG_OF_PERICENTER":"88.3162","PERIAPSIS":"538.585","DECAY_DATE":null,"EPOCH":"2023-01-29T21:41:12.954624","TLE_LINE2":"2 51136  53.2135 353.3807 0001655  88.3162 271.8020 15.08844945 57416","OBJECT_ID":"2022-005AJ","SEMIMAJOR_AXIS":"6917.865","REV_AT_EPOCH":"5741","NORAD_CAT_ID":"51136","LAUNCH_DATE":"2022-01-19","RA_OF_ASC_NODE":"353.3807","CENTER_NAME":"EARTH","TIME_SYSTEM":"UTC","MEAN_ELEMENT_THEORY":"SGP4","SITE":"AFETR","FILE":"3765015","REF_FRAME":"TEME","INCLINATION":"53.2135","APOAPSIS":"540.875"},{"APOAPSIS":"540.572","INCLINATION":"53.2137","REF_FRAME":"TEME","SITE":"AFETR","FILE":"3765015","CENTER_NAME":"EARTH","TIME_SYSTEM":"UTC","MEAN_ELEMENT_THEORY":"SGP4","RA_OF_ASC_NODE":"353.4388","REV_AT_EPOCH":"5742","SEMIMAJOR_AXIS":"6917.880","TLE_LINE2":"2 51137  53.2137 353.4388 0001196  94.1911 265.9218 15.08840137 57424","OBJECT_ID":"2022-005AK","LAUNCH_DATE":"2022-01-19","NORAD_CAT_ID":"51137","EPOCH":"2023-01-29T21:23:56.494176","DECAY_DATE":null,"ARG_OF_PERICENTER":"94.1911","PERIAPSIS":"538.918","COUNTRY_CODE":"US","PERIOD":"95.438","MEAN_MOTION_DOT":"0.00000409","MEAN_MOTION":"15.08840137","BSTAR":"0.00004375500000","ELEMENT_SET_NO":"999","GP_ID":"223958598","ECCENTRICITY":"0.00011960","OBJECT_NAME":"STARLINK-3180","TLE_LINE1":"1 51137U 22005AK  23029.89162609  .00000409  00000-0  43755-4 0  9994","CLASSIFICATION_TYPE":"U","MEAN_ANOMALY":"265.9218","EPHEMERIS_TYPE":"0","OBJECT_TYPE":"PAYLOAD","RCS_SIZE":"LARGE","MEAN_MOTION_DDOT":"0.0000000000000"},{"FILE":"3765015","SITE":"AFETR","RA_OF_ASC_NODE":"353.4008","MEAN_ELEMENT_THEORY":"SGP4","CENTER_NAME":"EARTH","TIME_SYSTEM":"UTC","INCLINATION":"53.2153","REF_FRAME":"TEME","APOAPSIS":"540.740","DECAY_DATE":null,"PERIAPSIS":"538.729","ARG_OF_PERICENTER":"87.6087","NORAD_CAT_ID":"51138","LAUNCH_DATE":"2022-01-19","TLE_LINE2":"2 51138  53.2153 353.4008 0001454  87.6087 272.5071 15.08843524 57413","OBJECT_ID":"2022-005AL","SEMIMAJOR_AXIS":"6917.870","REV_AT_EPOCH":"5741","EPOCH":"2023-01-29T21:34:32.406816","MEAN_MOTION":"15.08843524","BSTAR":"0.00021663000000","ELEMENT_SET_NO":"999","GP_ID":"223957346","COUNTRY_CODE":"US","MEAN_MOTION_DOT":"0.00003162","PERIOD":"95.437","RCS_SIZE":"MEDIUM","OBJECT_TYPE":"PAYLOAD","MEAN_MOTION_DDOT":"0.0000000000000","ECCENTRICITY":"0.00014540","EPHEMERIS_TYPE":"0","MEAN_ANOMALY":"272.5071","CLASSIFICATION_TYPE":"U","TLE_LINE1":"1 51138U 22005AL  23029.89898619  .00003162  00000-0  21663-3 0  9994","OBJECT_NAME":"STARLINK-3177"},{"DECAY_DATE":null,"ARG_OF_PERICENTER":"86.6751","PERIAPSIS":"538.799","LAUNCH_DATE":"2022-01-19","NORAD_CAT_ID":"51139","REV_AT_EPOCH":"5742","SEMIMAJOR_AXIS":"6917.885","TLE_LINE2":"2 51139  53.2155 353.4676 0001376  86.6751 273.4399 15.08838341 57422","OBJECT_ID":"2022-005AM","EPOCH":"2023-01-29T21:13:20.629920","FILE":"3765015","SITE":"AFETR","TIME_SYSTEM":"UTC","CENTER_NAME":"EARTH","MEAN_ELEMENT_THEORY":"SGP4","RA_OF_ASC_NODE":"353.4676","APOAPSIS":"540.702","REF_FRAME":"TEME","INCLINATION":"53.2155","RCS_SIZE":"LARGE","OBJECT_TYPE":"PAYLOAD","MEAN_MOTION_DDOT":"0.0000000000000","ECCENTRICITY":"0.00013760","CLASSIFICATION_TYPE":"U","EPHEMERIS_TYPE":"0","MEAN_ANOMALY":"273.4399","OBJECT_NAME":"STARLINK-3172","TLE_LINE1":"1 51139U 22005AM  23029.88426655  .00000847  00000-0  71316-4 0  9999","MEAN_MOTION":"15.08838341","BSTAR":"0.00007131600000","GP_ID":"223957596","ELEMENT_SET_NO":"999","COUNTRY_CODE":"US","MEAN_MOTION_DOT":"0.00000847","PERIOD":"95.438"},{"EPOCH":"2023-01-29T07:10:44.123520","REV_AT_EPOCH":"5733","SEMIMAJOR_AXIS":"6917.777","OBJECT_ID":"2022-005AN","TLE_LINE2":"2 51140  53.2163 356.0904 0000794 108.0444 252.0635 15.08873967 57336","LAUNCH_DATE":"2022-01-19","NORAD_CAT_ID":"51140","ARG_OF_PERICENTER":"108.0444","PERIAPSIS":"539.092","DECAY_DATE":null,"APOAPSIS":"540.191","REF_FRAME":"TEME","INCLINATION":"53.2163","CENTER_NAME":"EARTH","TIME_SYSTEM":"UTC","MEAN_ELEMENT_THEORY":"SGP4","RA_OF_ASC_NODE":"356.0904","SITE":"AFETR","FILE":"3765015","OBJECT_NAME":"STARLINK-3175","TLE_LINE1":"1 51140U 22005AN  23029.29912180 -.00016621  00000-0 -10277-2 0  9995","CLASSIFICATION_TYPE":"U","MEAN_ANOMALY":"252.0635","EPHEMERIS_TYPE":"0","ECCENTRICITY":"0.00007940","MEAN_MOTION_DDOT":"0.0000000000000","OBJECT_TYPE":"PAYLOAD","RCS_SIZE":"LARGE","PERIOD":"95.435","MEAN_MOTION_DOT":"-0.00016621","COUNTRY_CODE":"US","GP_ID":"223958348","ELEMENT_SET_NO":"999","MEAN_MOTION":"15.08873967","BSTAR":"-0.00102770000000"}];
